NORAD_CAT_ID,OBJECT_NAME,OBJECT_TYPE,EPOCH,MEAN_MOTION,ECCENTRICITY,INCLINATION,RA_OF_ASC_NODE,ARG_OF_PERICENTER,MEAN_ANOMALY,BSTAR,MEAN_MOTION_DOT,MEAN_MOTION_DDOT,TLE_LINE0,TLE_LINE1,TLE_LINE2,SEMIMAJOR_AXIS,PERIOD,APOGEE,PERIGEE,DECAYED
54070.0,STARLINK-5181,PAYLOAD,2023-04-25 00:33:43,15.08878615,5.23e-05,53.2156,16.0026,83.1532,276.9519,0.0005106,7.856e-05,0.0,0 STARLINK-5181,1 54070U 22136V   23115.02342369  .00007856  00000-0  51060-3 0  9992,2 54070  53.2156  16.0026 0000523  83.1532 276.9519 15.08878615 28869,6917.762,95.435,539.989,539.266,0.0
54070.0,STARLINK-5181,PAYLOAD,2023-04-26 05:10:43,15.08783985,0.0001315,53.2162,10.6508,172.233,187.8682,-0.0010856,-0.00017497,0.0,0 STARLINK-5181,1 54070U 22136V   23116.21578390 -.00017497  00000-0 -10856-2 0  9990,2 54070  53.2162  10.6508 0001315 172.2330 187.8682 15.08783985 28560,6918.052,95.441,540.826,539.007,0.0
54070.0,STARLINK-5181,PAYLOAD,2023-04-26 21:04:35,15.08816289,9.98e-05,53.2151,7.6811,168.7884,191.313,4.3066e-05,3.97e-06,0.0,0 STARLINK-5181,1 54070U 22136V   23116.87818351  .00000397  00000-0  43066-4 0  9996,2 54070  53.2151   7.6811 0000998 168.7884 191.3130 15.08816289 28664,6917.953,95.439,540.508,539.127,0.0
54070.0,STARLINK-5181,PAYLOAD,2023-04-27 20:55:21,15.08866948,6.47e-05,53.2182,3.2082,144.4245,215.6791,0.00025637,3.798e-05,0.0,0 STARLINK-5181,1 54070U 22136V   23117.87177802  .00003798  00000-0  25637-3 0  9997,2 54070  53.2182   3.2082 0000647 144.4245 215.6791 15.08866948 29293,6917.798,95.436,540.111,539.215,0.0
54070.0,STARLINK-5181,PAYLOAD,2023-04-28 09:38:27,15.08853602,9.87e-05,53.2156,0.8398,24.0634,336.0404,-0.00077023,-0.00012529,0.0,0 STARLINK-5181,1 54070U 22136V   23118.40170558 -.00012529  00000-0 -77023-3 0  9998,2 54070  53.2156   0.8398 0000987  24.0634 336.0404 15.08853602 29370,6917.839,95.437,540.387,539.021,0.0
54070.0,STARLINK-5181,PAYLOAD,2023-04-28 23:56:56,15.08835794,5.18e-05,53.2164,358.162,83.1133,276.9918,0.0002989,4.472e-05,0.0,0 STARLINK-5181,1 54070U 22136V   23118.99787370  .00004472  00000-0  29890-3 0  9993,2 54070  53.2164 358.1620 0000518  83.1133 276.9918 15.08835794 29460,6917.893,95.438,540.117,539.4,0.0
54070.0,STARLINK-5181,PAYLOAD,2023-04-29 22:12:19,15.08863649,5.9e-05,53.217,353.9987,104.6915,255.4142,0.0012019,0.00018904,0.0,0 STARLINK-5181,1 54070U 22136V   23119.92523113  .00018904  00000-0  12019-2 0  9999,2 54070  53.2170 353.9987 0000590 104.6915 255.4142 15.08863649 29600,6917.808,95.436,540.081,539.265,0.0
54070.0,STARLINK-5181,PAYLOAD,2023-04-30 15:41:34,15.08862576,5.93e-05,53.2165,350.7277,63.4736,296.6317,0.00070737,0.00010995,0.0,0 STARLINK-5181,1 54070U 22136V   23120.65386769  .00010995  00000-0  70737-3 0  9999,2 54070  53.2165 350.7277 0000593  63.4736 296.6317 15.08862576 29718,6917.811,95.436,540.087,539.266,0.0
54070.0,STARLINK-5181,PAYLOAD,2023-04-30 20:27:43,15.08850709,3.39e-05,53.217,349.8344,54.4356,305.6668,0.0001502,2.104e-05,0.0,0 STARLINK-5181,1 54070U 22136V   23120.85258696  .00002104  00000-0  15020-3 0  9995,2 54070  53.2170 349.8344 0000339  54.4356 305.6668 15.08850709 29742,6917.848,95.437,539.947,539.478,0.0
54070.0,STARLINK-5181,PAYLOAD,2023-05-01 21:53:53,15.08849324,4.16e-05,53.2163,345.0762,89.5805,270.5235,8.7131e-05,1.1e-05,0.0,0 STARLINK-5181,1 54070U 22136V   23121.91242423  .00001100  00000-0  87131-4 0  9992,2 54070  53.2163 345.0762 0000416  89.5805 270.5235 15.08849324 29909,6917.852,95.437,540.005,539.429,0.0
54070.0,STARLINK-5181,PAYLOAD,2023-05-02 21:44:40,15.08861193,5.98e-05,53.2158,340.6175,60.808,299.2972,0.00045094,6.9e-05,0.0,0 STARLINK-5181,1 54070U 22136V   23122.90601976  .00006900  00000-0  45094-3 0  9998,2 54070  53.2158 340.6175 0000598  60.8080 299.2972 15.08861193 29577,6917.816,95.436,540.094,539.267,0.0
54070.0,STARLINK-5181,PAYLOAD,2023-05-03 00:55:25,15.08867305,5.34e-05,53.2152,340.022,84.7405,275.3648,0.00054477,8.399e-05,0.0,0 STARLINK-5181,1 54070U 22136V   23123.03849432  .00008399  00000-0  54477-3 0  9993,2 54070  53.2152 340.0220 0000534  84.7405 275.3648 15.08867305 30075,6917.797,95.436,540.031,539.293,0.0
54070.0,STARLINK-5181,PAYLOAD,2023-05-03 07:16:58,15.08855009,9.83e-05,53.2163,338.8316,76.0761,284.0341,0.00024476,3.611e-05,0.0,0 STARLINK-5181,1 54070U 22136V   23123.30345731  .00003611  00000-0  24476-3 0  9994,2 54070  53.2163 338.8316 0000983  76.0761 284.0341 15.08855009 30115,6917.835,95.437,540.38,539.019,0.0
54070.0,STARLINK-5181,PAYLOAD,2023-05-03 21:35:26,15.08858502,8.5e-05,53.2165,336.1537,65.5119,294.5962,0.0002033,2.951e-05,0.0,0 STARLINK-5181,1 54070U 22136V   23123.89960877  .00002951  00000-0  20330-3 0  9993,2 54070  53.2165 336.1537 0000850  65.5119 294.5962 15.08858502 29727,6917.824,95.436,540.277,539.101,0.0
54070.0,STARLINK-5181,PAYLOAD,2023-05-04 07:07:45,15.08845461,5.33e-05,53.2163,334.3714,88.3363,271.769,6.6995e-06,-1.81e-06,0.0,0 STARLINK-5181,1 54070U 22136V   23124.29705209 -.00000181  00000-0  66995-5 0  9997,2 54070  53.2163 334.3714 0000533  88.3363 271.7690 15.08845461 30260,6917.864,95.437,540.097,539.36,0.0
54070.0,STARLINK-5181,PAYLOAD,2023-05-04 21:26:13,15.08830246,5.05e-05,53.216,331.6942,79.8237,280.2813,-0.00034948,-5.844e-05,0.0,0 STARLINK-5181,1 54070U 22136V   23124.89321646 -.00005844  00000-0 -34948-3 0  9995,2 54070  53.2160 331.6942 0000505  79.8237 280.2813 15.08830246 30351,6917.91,95.438,540.125,539.426,0.0
54070.0,STARLINK-5181,PAYLOAD,2023-05-05 19:41:38,15.08839041,5.16e-05,53.2148,327.5331,103.5658,256.5392,0.00043174,6.59e-05,0.0,0 STARLINK-5181,1 54070U 22136V   23125.82058501  .00006590  00000-0  43174-3 0  9994,2 54070  53.2148 327.5331 0000516 103.5658 256.5392 15.08839041 30010,6917.883,95.438,540.105,539.391,0.0
54070.0,STARLINK-5181,PAYLOAD,2023-05-06 19:32:25,15.08848069,4.83e-05,53.2145,323.0725,99.4151,260.6895,0.00064579,0.00010007,0.0,0 STARLINK-5181,1 54070U 22136V   23126.81418966  .00010007  00000-0  64579-3 0  9999,2 54070  53.2145 323.0725 0000483  99.4151 260.6895 15.08848069 30642,6917.856,95.437,540.055,539.387,0.0
54070.0,STARLINK-5181,PAYLOAD,2023-05-07 19:23:13,15.08840471,5.26e-05,53.2149,318.6114,56.0929,304.0113,0.00020185,2.926e-05,0.0,0 STARLINK-5181,1 54070U 22136V   23127.80779348  .00002926  00000-0  20185-3 0  9999,2 54070  53.2149 318.6114 0000526  56.0929 304.0113 15.08840471 30799,6917.879,95.438,540.108,539.38,0.0
54070.0,STARLINK-5181,PAYLOAD,2023-05-08 19:14:02,15.0880894,7.6e-05,53.2152,314.1501,53.7415,306.3647,-0.00030173,-5.082e-05,0.0,0 STARLINK-5181,1 54070U 22136V   23128.80141303 -.00005082  00000-0 -30173-3 0  9990,2 54070  53.2152 314.1501 0000760  53.7415 306.3647 15.08808940 30464,6917.975,95.44,540.366,539.315,0.0
54070.0,STARLINK-5181,PAYLOAD,2023-05-09 04:46:20,15.08823226,8.04e-05,53.2155,312.3656,60.7264,299.3808,-4.0275e-05,-9.28e-06,0.0,0 STARLINK-5181,1 54070U 22136V   23129.19885141 -.00000928  00000-0 -40275-4 0  9997,2 54070  53.2155 312.3656 0000804  60.7264 299.3808 15.08823226 31002,6917.932,95.439,540.353,539.24,0.0
54070.0,STARLINK-5181,PAYLOAD,2023-05-10 04:37:07,15.08840746,0.0001094,53.215,307.905,44.5035,315.6045,0.00023095,3.39e-05,0.0,0 STARLINK-5181,1 54070U 22136V   23130.19244629  .00003390  00000-0  23095-3 0  9993,2 54070  53.2150 307.9050 0001094  44.5035 315.6045 15.08840746 30676,6917.878,95.438,540.5,538.986,0.0
54070.0,STARLINK-5181,PAYLOAD,2023-05-10 18:55:34,15.08868424,0.0001249,53.2154,305.2287,47.6373,312.4725,0.00081452,0.00012709,0.0,0 STARLINK-5181,1 54070U 22136V   23130.78859261  .00012709  00000-0  81452-3 0  9997,2 54070  53.2154 305.2287 0001249  47.6373 312.4725 15.08868424 31241,6917.794,95.436,540.523,538.794,0.0
54070.0,STARLINK-5181,PAYLOAD,2023-05-11 04:27:53,15.08854973,8.91e-05,53.2158,303.4487,58.8932,301.2147,0.00044606,6.821e-05,0.0,0 STARLINK-5181,1 54070U 22136V   23131.18603493  .00006821  00000-0  44606-3 0  9994,2 54070  53.2158 303.4487 0000891  58.8932 301.2147 15.08854973 31309,6917.835,95.437,540.316,539.083,0.0
54070.0,STARLINK-5181,PAYLOAD,2023-05-11 17:10:58,15.08856531,0.0001447,53.2171,301.0657,54.7481,305.3646,-2.3258e-05,-6.58e-06,0.0,0 STARLINK-5181,1 54070U 22136V   23131.71595501 -.00000658  00000-0 -23258-4 0  9998,2 54070  53.2171 301.0657 0001447  54.7481 305.3646 15.08856531 31388,6917.83,95.437,540.696,538.694,0.0
54070.0,STARLINK-5181,PAYLOAD,2023-05-11 18:46:21,15.08845572,0.0001399,53.2177,300.7685,56.7356,303.377,0.00013845,1.917e-05,0.0,0 STARLINK-5181,1 54070U 22136V   23131.78219707  .00001917  00000-0  13845-3 0  9993,2 54070  53.2177 300.7685 0001399  56.7356 303.3770 15.08845572 31390,6917.863,95.437,540.696,538.761,0.0
54070.0,STARLINK-5181,PAYLOAD,2023-05-12 18:37:08,15.08852493,0.0001161,53.2172,296.3084,54.443,305.667,-0.00012259,-2.239e-05,0.0,0 STARLINK-5181,1 54070U 22136V   23132.77579661 -.00002239  00000-0 -12259-3 0  9999,2 54070  53.2172 296.3084 0001161  54.4430 305.6670 15.08852493 31061,6917.842,95.437,540.51,538.904,0.0
54070.0,STARLINK-5181,PAYLOAD,2023-05-13 04:09:27,15.08855093,0.0001145,53.2172,294.5248,66.4396,293.6717,-0.00018009,-3.154e-05,0.0,0 STARLINK-5181,1 54070U 22136V   23133.17323250 -.00003154  00000-0 -18009-3 0  9991,2 54070  53.2172 294.5248 0001145  66.4396 293.6717 15.08855093 31606,6917.834,95.437,540.491,538.907,0.0
54070.0,STARLINK-5181,PAYLOAD,2023-05-13 16:52:32,15.08846904,0.0001066,53.2163,292.1446,73.0006,287.1103,2.6231e-05,1.3e-06,0.0,0 STARLINK-5181,1 54070U 22136V   23133.70315208  .00000130  00000-0  26231-4 0  9990,2 54070  53.2163 292.1446 0001066  73.0006 287.1103 15.08846904 31208,6917.859,95.437,540.462,538.987,0.0
54070.0,STARLINK-5181,PAYLOAD,2023-05-14 04:00:14,15.08845228,0.0001011,53.2162,290.063,74.4594,285.6509,2.4732e-05,1.06e-06,0.0,0 STARLINK-5181,1 54070U 22136V   23134.16683220  .00000106  00000-0  24732-4 0  9990,2 54070  53.2162 290.0630 0001011  74.4594 285.6509 15.08845228 31757,6917.864,95.437,540.429,539.03,0.0
